{"type":"FeatureCollection","bbox":[-0.193245,49.185193,1.114772,49.76548],"features":[{"type":"Feature","properties":{"group_index":0,"value":3300,"center":[0.10658008512112968,49.4938433450534]},"geometry":{"coordinates":[[[-0.099401,49.621629],[-0.005556,49.513288],[-0.002897,49.510957],[-0.000418,49.508808],[0.002474,49.506966],[0.005144,49.505289],[0.035209,49.344427],[0.014392,49.322707],[0.01401,49.322294],[-0.014045,49.294231],[-0.104922,49.250992],[-0.165768,49.206913],[-0.164838,49.203435],[-0.158036,49.205253],[-0.151234,49.207072],[-0.148814,49.207726],[-0.146399,49.208379],[-0.08743,49.21846],[0.032093,49.198619],[0.062356,49.1939],[0.230497,49.185193],[0.373574,49.223347],[0.48296,49.224008],[0.496799,49.22774],[0.497984,49.228562],[0.618919,49.265297],[0.693724,49.249946],[0.771897,49.248027],[0.77497,49.249902],[0.90756,49.317723],[1.008035,49.33581],[1.014188,49.336128],[1.046965,49.341976],[1.047,49.345576],[1.003864,49.487159],[0.997374,49.497808],[1.100356,49.633764],[1.107145,49.632137],[1.113933,49.63051],[1.114772,49.634011],[1.107984,49.635638],[1.101195,49.637265],[1.099689,49.637598],[1.097603,49.638022],[1.095427,49.638394],[1.093227,49.63872],[1.091557,49.638926],[1.047166,49.646019],[0.901806,49.697409],[0.758839,49.720425],[0.605481,49.750137],[0.514244,49.750353],[0.400322,49.763587],[0.369408,49.76548],[0.292762,49.740227],[0.203617,49.709397],[0.199043,49.70659],[0.167497,49.687062],[0.166836,49.686701],[0.162908,49.683257],[0.162755,49.682859],[0.16235,49.681272],[0.151859,49.64998],[0.121538,49.595963],[0.10452,49.576339],[0.092624,49.557222],[-0.002835,49.515645],[-0.09668,49.623986],[-0.190524,49.732326],[-0.193245,49.729969],[-0.099401,49.621629]]],"type":"Polygon"}}],"metadata":{"attribution":"openrouteservice.org | OpenStreetMap contributors","service":"isochrones","timestamp":1788529328776,"query":{"profile":"driving-car","profileName":"driving-car","locations":[[0.1077,49.4938]],"range":[3300],"range_type":"time","smoothing":15},"engine":{"version":"9.10.0","build_date":"2026-08-13T11:53:14Z","graph_date":"2026-08-23T11:54:46Z","osm_date":"2026-08-17T00:00:02Z"}}}
